{"type": "FeatureCollection", "features": [ {"type": "Feature", "properties": {"norad_id": 30386, "name": "FENGYUN 1C DEB", "group": "fengyun-1c-debris", "lat": -19.089194215830148, "lon": -114.83319791378533, "alt_km": 1281.4082160420476, "timestamp": "2025-12-12T20:43:07.311113+00:00", "meta": {"OBJECT_NAME": "FENGYUN 1C DEB", "OBJECT_ID": "1999-025ACZ", "EPOCH": "2025-12-12T03:52:55.217280", "MEAN_MOTION": 13.55568173, "ECCENTRICITY": 0.03036541, "INCLINATION": 98.69, "RA_OF_ASC_NODE": 241.5137, "ARG_OF_PERICENTER": 157.272, "MEAN_ANOMALY": 2.1698, "EPHEMERIS_TYPE": 0, "CLASSIFICATION_TYPE": "U", "NORAD_CAT_ID": 30386, "ELEMENT_SET_NO": 999, "REV_AT_EPOCH": 92821, "BSTAR": 0.002142088, "MEAN_MOTION_DOT": 1.966e-05, "MEAN_MOTION_DDOT": 0}, "tle": {"line1": "1 30386U 99025ACZ 25346.16175020  .00001966  00000+0  21421-2 0  9990", "line2": "2 30386  98.6900 241.5137 0303654 157.2720   2.1698 13.55568173928214"}}, "geometry": {"type": "Point", "coordinates": [-114.83319791378533, -19.089194215830148]}}, {"type": "Feature", "properties": {"norad_id": 30387, "name": "FENGYUN 1C DEB", "group": "fengyun-1c-debris", "lat": 70.03096004845105, "lon": -153.28239626059516, "alt_km": 834.4984663806117, "timestamp": "2025-12-12T20:43:07.311123+00:00", "meta": {"OBJECT_NAME": "FENGYUN 1C DEB", "OBJECT_ID": "1999-025ADA", "EPOCH": "2025-12-12T06:42:25.693056", "MEAN_MOTION": 14.15051954, "ECCENTRICITY": 0.000117, "INCLINATION": 98.6567, "RA_OF_ASC_NODE": 1.3628, "ARG_OF_PERICENTER": 96.322, "MEAN_ANOMALY": 279.3108, "EPHEMERIS_TYPE": 0, "CLASSIFICATION_TYPE": "U", "NORAD_CAT_ID": 30387, "ELEMENT_SET_NO": 999, "REV_AT_EPOCH": 97318, "BSTAR": 0.00037870863, "MEAN_MOTION_DOT": 6.91e-06, "MEAN_MOTION_DDOT": 0}, "tle": {"line1": "1 30387U 99025ADA 25346.27946404  .00000691  00000+0  37871-3 0  9996", "line2": "2 30387  98.6567   1.3628 0001170  96.3220 279.3108 14.15051954973188"}}, "geometry": {"type": "Point", "coordinates": [-153.28239626059516, 70.03096004845105]}}, {"type": "Feature", "properties": {"norad_id": 30388, "name": "FENGYUN 1C DEB", "group": "fengyun-1c-debris", "lat": 22.135383863142252, "lon": 3.9972487304119615, "alt_km": 701.6231018390863, "timestamp": "2025-12-12T20:43:07.311133+00:00", "meta": {"OBJECT_NAME": "FENGYUN 1C DEB", "OBJECT_ID": "1999-025ADB", "EPOCH": "2025-12-12T00:36:45.421344", "MEAN_MOTION": 14.19766204, "ECCENTRICITY": 0.0222165, "INCLINATION": 98.5995, "RA_OF_ASC_NODE": 6.7118, "ARG_OF_PERICENTER": 64.8693, "MEAN_ANOMALY": 359.7789, "EPHEMERIS_TYPE": 0, "CLASSIFICATION_TYPE": "U", "NORAD_CAT_ID": 30388, "ELEMENT_SET_NO": 999, "REV_AT_EPOCH": 97422, "BSTAR": 0.0006502, "MEAN_MOTION_DOT": 1.719e-05, "MEAN_MOTION_DDOT": 0}, "tle": {"line1": "1 30388U 99025ADB 25346.02552571  .00001719  00000+0  65020-3 0  9997", "line2": "2 30388  98.5995   6.7118 0222165  64.8693 359.7789 14.19766204974228"}}, "geometry": {"type": "Point", "coordinates": [3.9972487304119615, 22.135383863142252]}}, {"type": "Feature", "properties": {"norad_id": 30389, "name": "FENGYUN 1C DEB", "group": "fengyun-1c-debris", "lat": 76.68320216939378, "lon": 27.014469361851063, "alt_km": 745.4903389466763, "timestamp": "2025-12-12T20:43:07.311143+00:00", "meta": {"OBJECT_NAME": "FENGYUN 1C DEB", "OBJECT_ID": "1999-025ADC", "EPOCH": "2025-12-11T04:34:26.971680", "MEAN_MOTION": 14.44015226, "ECCENTRICITY": 0.00140915, "INCLINATION": 98.8371, "RA_OF_ASC_NODE": 66.369, "ARG_OF_PERICENTER": 224.4678, "MEAN_ANOMALY": 165.1256, "EPHEMERIS_TYPE": 0, "CLASSIFICATION_TYPE": "U", "NORAD_CAT_ID": 30389, "ELEMENT_SET_NO": 999, "REV_AT_EPOCH": 97764, "BSTAR": 0.0036521396, "MEAN_MOTION_DOT": 0.00012476, "MEAN_MOTION_DDOT": 0}, "tle": {"line1": "1 30389U 99025ADC 25345.19058995  .00012476  00000+0  36521-2 0  9991", "line2": "2 30389  98.8371  66.3690 0014091 224.4678 165.1256 14.44015226977647"}}, "geometry": {"type": "Point", "coordinates": [27.014469361851063, 76.68320216939378]}}, {"type": "Feature", "properties": {"norad_id": 30390, "name": "FENGYUN 1C DEB", "group": "fengyun-1c-debris", "lat": -78.87102743790078, "lon": 122.21431077636142, "alt_km": 818.2904469165787, "timestamp": "2025-12-12T20:43:07.311159+00:00", "meta": {"OBJECT_NAME": "FENGYUN 1C DEB", "OBJECT_ID": "1999-025ADD", "EPOCH": "2025-12-12T04:37:19.746624", "MEAN_MOTION": 14.29724054, "ECCENTRICITY": 0.00679718, "INCLINATION": 98.8229, "RA_OF_ASC_NODE": 69.392, "ARG_OF_PERICENTER": 166.2929, "MEAN_ANOMALY": 259.7057, "EPHEMERIS_TYPE": 0, "CLASSIFICATION_TYPE": "U", "NORAD_CAT_ID": 30390, "ELEMENT_SET_NO": 999, "REV_AT_EPOCH": 97376, "BSTAR": 0.0028840839, "MEAN_MOTION_DOT": 7.55e-05, "MEAN_MOTION_DDOT": 0}, "tle": {"line1": "1 30390U 99025ADD 25346.19258966  .00007550  00000+0  28841-2 0  9997", "line2": "2 30390  98.8229  69.3920 0067971 166.2929 259.7057 14.29724054973764"}}, "geometry": {"type": "Point", "coordinates": [122.21431077636142, -78.87102743790078]}}, {"type": "Feature", "properties": {"norad_id": 30391, "name": "FENGYUN 1C DEB", "group": "fengyun-1c-debris", "lat": -3.328395818795406, "lon": -147.65030962699245, "alt_km": 830.8304915614272, "timestamp": "2025-12-12T20:43:07.311169+00:00", "meta": {"OBJECT_NAME": "FENGYUN 1C DEB", "OBJECT_ID": "1999-025ADE", "EPOCH": "2025-12-10T01:51:40.021920", "MEAN_MOTION": 14.16217466, "ECCENTRICITY": 0.00713405, "INCLINATION": 98.7807, "RA_OF_ASC_NODE": 30.1181, "ARG_OF_PERICENTER": 269.7069, "MEAN_ANOMALY": 119.4811, "EPHEMERIS_TYPE": 0, "CLASSIFICATION_TYPE": "U", "NORAD_CAT_ID": 30391, "ELEMENT_SET_NO": 999, "REV_AT_EPOCH": 96841, "BSTAR": 0.0015804062, "MEAN_MOTION_DOT": 3.165e-05, "MEAN_MOTION_DDOT": 0}, "tle": {"line1": "1 30391U 99025ADE 25344.07754655  .00003165  00000+0  15804-2 0  9992", "line2": "2 30391  98.7807  30.1181 0071340 269.7069 119.4811 14.16217466968416"}}, "geometry": {"type": "Point", "coordinates": [-147.65030962699245, -3.328395818795406]}}, {"type": "Feature", "properties": {"norad_id": 30392, "name": "FENGYUN 1C DEB", "group": "fengyun-1c-debris", "lat": 9.211373764550553, "lon": -173.11819483280155, "alt_km": 1000.2029488536255, "timestamp": "2025-12-12T20:43:07.311180+00:00", "meta": {"OBJECT_NAME": "FENGYUN 1C DEB", "OBJECT_ID": "1999-025ADF", "EPOCH": "2025-12-10T23:40:51.503808", "MEAN_MOTION": 14.07445561, "ECCENTRICITY": 0.01810623, "INCLINATION": 98.7859, "RA_OF_ASC_NODE": 3.619, "ARG_OF_PERICENTER": 1.8156, "MEAN_ANOMALY": 25.5701, "EPHEMERIS_TYPE": 0, "CLASSIFICATION_TYPE": "U", "NORAD_CAT_ID": 30392, "ELEMENT_SET_NO": 999, "REV_AT_EPOCH": 96646, "BSTAR": 0.0010434081, "MEAN_MOTION_DOT": 1.997e-05, "MEAN_MOTION_DDOT": 0}, "tle": {"line1": "1 30392U 99025ADF 25344.98670722  .00001997  00000+0  10434-2 0  9990", "line2": "2 30392  98.7859   3.6190 0181062   1.8156  25.5701 14.07445561966461"}}, "geometry": {"type": "Point", "coordinates": [-173.11819483280155, 9.211373764550553]}}, {"type": "Feature", "properties": {"norad_id": 30393, "name": "FENGYUN 1C DEB", "group": "fengyun-1c-debris", "lat": -76.12652948880181, "lon": -176.16456661974757, "alt_km": 854.0557480800608, "timestamp": "2025-12-12T20:43:07.311190+00:00", "meta": {"OBJECT_NAME": "FENGYUN 1C DEB", "OBJECT_ID": "1999-025ADG", "EPOCH": "2025-12-12T02:27:20.661408", "MEAN_MOTION": 13.98983286, "ECCENTRICITY": 0.00694655, "INCLINATION": 99.1645, "RA_OF_ASC_NODE": 43.8886, "ARG_OF_PERICENTER": 261.7488, "MEAN_ANOMALY": 127.4251, "EPHEMERIS_TYPE": 0, "CLASSIFICATION_TYPE": "U", "NORAD_CAT_ID": 30393, "ELEMENT_SET_NO": 999, "REV_AT_EPOCH": 96321, "BSTAR": 0.00041723987, "MEAN_MOTION_DOT": 5.7e-06, "MEAN_MOTION_DDOT": 0}, "tle": {"line1": "1 30393U 99025ADG 25346.10232247  .00000570  00000+0  41724-3 0  9996", "line2": "2 30393  99.1645  43.8886 0069465 261.7488 127.4251 13.98983286963217"}}, "geometry": {"type": "Point", "coordinates": [-176.16456661974757, -76.12652948880181]}}, {"type": "Feature", "properties": {"norad_id": 30394, "name": "FENGYUN 1C DEB", "group": "fengyun-1c-debris", "lat": -47.80534940951259, "lon": -175.43950165001775, "alt_km": 954.7058280396459, "timestamp": "2025-12-12T20:43:07.311200+00:00", "meta": {"OBJECT_NAME": "FENGYUN 1C DEB", "OBJECT_ID": "1999-025ADH", "EPOCH": "2025-12-12T07:40:11.891712", "MEAN_MOTION": 13.9578711, "ECCENTRICITY": 0.00898992, "INCLINATION": 99.4354, "RA_OF_ASC_NODE": 14.5732, "ARG_OF_PERICENTER": 102.5368, "MEAN_ANOMALY": 274.7251, "EPHEMERIS_TYPE": 0, "CLASSIFICATION_TYPE": "U", "NORAD_CAT_ID": 30394, "ELEMENT_SET_NO": 999, "REV_AT_EPOCH": 96098, "BSTAR": 0.00039400424, "MEAN_MOTION_DOT": 5.1e-06, "MEAN_MOTION_DDOT": 0}, "tle": {"line1": "1 30394U 99025ADH 25346.31958208  .00000510  00000+0  39400-3 0  9994", "line2": "2 30394  99.4354  14.5732 0089899 102.5368 274.7251 13.95787110960987"}}, "geometry": {"type": "Point", "coordinates": [-175.43950165001775, -47.80534940951259]}}, {"type": "Feature", "properties": {"norad_id": 30395, "name": "FENGYUN 1C DEB", "group": "fengyun-1c-debris", "lat": 18.09578219190568, "lon": -0.5244884399582163, "alt_km": 789.5764112104434, "timestamp": "2025-12-12T20:43:07.311210+00:00", "meta": {"OBJECT_NAME": "FENGYUN 1C DEB", "OBJECT_ID": "1999-025ADJ", "EPOCH": "2025-12-12T00:15:11.253024", "MEAN_MOTION": 13.9669036, "ECCENTRICITY": 0.0160464, "INCLINATION": 98.9308, "RA_OF_ASC_NODE": 1.5927, "ARG_OF_PERICENTER": 28.1567, "MEAN_ANOMALY": 25.2468, "EPHEMERIS_TYPE": 0, "CLASSIFICATION_TYPE": "U", "NORAD_CAT_ID": 30395, "ELEMENT_SET_NO": 999, "REV_AT_EPOCH": 96013, "BSTAR": 0.00062649, "MEAN_MOTION_DOT": 9.26e-06, "MEAN_MOTION_DDOT": 0}, "tle": {"line1": "1 30395U 99025ADJ 25346.01054691  .00000926  00000+0  62649-3 0  9997", "line2": "2 30395  98.9308   1.5927 0160464  28.1567  25.2468 13.96690360960132"}}, "geometry": {"type": "Point", "coordinates": [-0.5244884399582163, 18.09578219190568]}}]}